start=new Date('2022-09-17T00:00:00.000Z').valueOf();
sats=[{"EPOCH":"2022-09-16T19:57:29.521152","MEAN_MOTION":"15.06394125","FILE":"3575787","COUNTRY_CODE":"US","INCLINATION":"53.0545","EPHEMERIS_TYPE":"0","BSTAR":"-0.00004357200000","LAUNCH_DATE":"2020-08-07","REF_FRAME":"TEME","GP_ID":"212745657","TLE_LINE2":"2 46061  53.0545  57.2417 0001425  66.9115 293.2024 15.06394125117633","SITE":"AFETR","CENTER_NAME":"EARTH","OBJECT_NAME":"STARLINK-1573","CLASSIFICATION_TYPE":"U","MEAN_MOTION_DOT":"-0.00000930","APOAPSIS":"548.218","OBJECT_ID":"2020-055AL","NORAD_CAT_ID":"46061","MEAN_ANOMALY":"293.2024","PERIOD":"95.593","MEAN_MOTION_DDOT":"0.0000000000000","REV_AT_EPOCH":"11763","RCS_SIZE":"LARGE","ELEMENT_SET_NO":"999","OBJECT_TYPE":"PAYLOAD","DECAY_DATE":null,"SEMIMAJOR_AXIS":"6925.367","ECCENTRICITY":"0.00014250","ARG_OF_PERICENTER":"66.9115","MEAN_ELEMENT_THEORY":"SGP4","TLE_LINE1":"1 46061U 20055AL  22259.83159168 -.00000930  00000-0 -43572-4 0  9999","PERIAPSIS":"546.245","RA_OF_ASC_NODE":"57.2417","TIME_SYSTEM":"UTC"},{"ELEMENT_SET_NO":"999","RCS_SIZE":"LARGE","PERIOD":"95.593","MEAN_ANOMALY":"293.2046","NORAD_CAT_ID":"46062","OBJECT_ID":"2020-055AM","MEAN_MOTION_DDOT":"0.0000000000000","REV_AT_EPOCH":"11755","TLE_LINE1":"1 46062U 20055AM  22259.53302823  .00000370  00000-0  43744-4 0  9992","RA_OF_ASC_NODE":"58.5635","TIME_SYSTEM":"UTC","PERIAPSIS":"546.214","ARG_OF_PERICENTER":"66.9098","ECCENTRICITY":"0.00014780","DECAY_DATE":null,"SEMIMAJOR_AXIS":"6925.372","OBJECT_TYPE":"PAYLOAD","MEAN_ELEMENT_THEORY":"SGP4","BSTAR":"0.00004374400000","EPHEMERIS_TYPE":"0","INCLINATION":"53.0543","GP_ID":"212745909","REF_FRAME":"TEME","LAUNCH_DATE":"2020-08-07","FILE":"3575787","MEAN_MOTION":"15.06392262","EPOCH":"2022-09-16T12:47:33.639072","COUNTRY_CODE":"US","MEAN_MOTION_DOT":"0.00000370","APOAPSIS":"548.261","SITE":"AFETR","TLE_LINE2":"2 46062  53.0543  58.5635 0001478  66.9098 293.2046 15.06392262117551","OBJECT_NAME":"STARLINK-1574","CENTER_NAME":"EARTH","CLASSIFICATION_TYPE":"U"},{"TIME_SYSTEM":"UTC","RA_OF_ASC_NODE":"58.5927","PERIAPSIS":"546.363","TLE_LINE1":"1 46063U 20055AN  22259.52934680 -.00000722  00000-0 -29623-4 0  9997","MEAN_ELEMENT_THEORY":"SGP4","ARG_OF_PERICENTER":"109.6030","ECCENTRICITY":"0.00012600","DECAY_DATE":null,"OBJECT_TYPE":"PAYLOAD","SEMIMAJOR_AXIS":"6925.371","ELEMENT_SET_NO":"999","RCS_SIZE":"LARGE","REV_AT_EPOCH":"11758","MEAN_MOTION_DDOT":"0.0000000000000","PERIOD":"95.593","MEAN_ANOMALY":"250.5095","NORAD_CAT_ID":"46063","OBJECT_ID":"2020-055AN","APOAPSIS":"548.109","MEAN_MOTION_DOT":"-0.00000722","CLASSIFICATION_TYPE":"U","SITE":"AFETR","TLE_LINE2":"2 46063  53.0541  58.5927 0001260 109.6030 250.5095 15.06392669117588","CENTER_NAME":"EARTH","OBJECT_NAME":"STARLINK-1577","GP_ID":"212746159","LAUNCH_DATE":"2020-08-07","REF_FRAME":"TEME","BSTAR":"-0.00002962300000","EPHEMERIS_TYPE":"0","INCLINATION":"53.0541","COUNTRY_CODE":"US","FILE":"3575787","MEAN_MOTION":"15.06392669","EPOCH":"2022-09-16T12:42:15.563520"},{"APOAPSIS":"548.451","MEAN_MOTION_DOT":"-0.00000297","CLASSIFICATION_TYPE":"U","TLE_LINE2":"2 46064  53.0575  58.7404 0001754  82.4392 277.6796 15.06392651117056","SITE":"AFETR","CENTER_NAME":"EARTH","OBJECT_NAME":"STARLINK-1583","REF_FRAME":"TEME","LAUNCH_DATE":"2020-08-07","GP_ID":"212724362","INCLINATION":"53.0575","EPHEMERIS_TYPE":"0","BSTAR":"-0.00000100950000","COUNTRY_CODE":"US","EPOCH":"2022-09-16T11:54:29.621088","MEAN_MOTION":"15.06392651","FILE":"3575690","PERIAPSIS":"546.021","RA_OF_ASC_NODE":"58.7404","TIME_SYSTEM":"UTC","TLE_LINE1":"1 46064U 20055AP  22259.49617617 -.00000297  00000-0 -10095-5 0  9993","MEAN_ELEMENT_THEORY":"SGP4","DECAY_DATE":null,"OBJECT_TYPE":"PAYLOAD","SEMIMAJOR_AXIS":"6925.371","ECCENTRICITY":"0.00017540","ARG_OF_PERICENTER":"82.4392","RCS_SIZE":"LARGE","ELEMENT_SET_NO":"999","MEAN_MOTION_DDOT":"0.0000000000000","REV_AT_EPOCH":"11705","OBJECT_ID":"2020-055AP","NORAD_CAT_ID":"46064","MEAN_ANOMALY":"277.6796","PERIOD":"95.593"},{"RCS_SIZE":"LARGE","ELEMENT_SET_NO":"999","OBJECT_ID":"2020-055AQ","NORAD_CAT_ID":"46065","PERIOD":"95.592","MEAN_ANOMALY":"287.7854","REV_AT_EPOCH":"11789","MEAN_MOTION_DDOT":"0.0000000000000","TLE_LINE1":"1 46065U 20055AQ  22259.82142794  .00001266  00000-0  10390-3 0  9991","PERIAPSIS":"546.353","RA_OF_ASC_NODE":"37.2849","TIME_SYSTEM":"UTC","SEMIMAJOR_AXIS":"6925.360","DECAY_DATE":null,"OBJECT_TYPE":"PAYLOAD","ARG_OF_PERICENTER":"72.3272","ECCENTRICITY":"0.00012600","MEAN_ELEMENT_THEORY":"SGP4","INCLINATION":"53.0566","EPHEMERIS_TYPE":"0","BSTAR":"0.00010390000000","REF_FRAME":"TEME","LAUNCH_DATE":"2020-08-07","GP_ID":"212745159","EPOCH":"2022-09-16T19:42:51.374016","MEAN_MOTION":"15.06396173","FILE":"3575787","COUNTRY_CODE":"US","MEAN_MOTION_DOT":"0.00001266","APOAPSIS":"548.098","CENTER_NAME":"EARTH","TLE_LINE2":"2 46065  53.0566  37.2849 0001260  72.3272 287.7854 15.06396173117891","SITE":"AFETR","OBJECT_NAME":"STARLINK-1515","CLASSIFICATION_TYPE":"U"},{"EPHEMERIS_TYPE":"0","BSTAR":"-0.00001779300000","INCLINATION":"53.0547","GP_ID":"212746408","LAUNCH_DATE":"2020-08-07","REF_FRAME":"TEME","MEAN_MOTION":"15.06391969","FILE":"3575787","EPOCH":"2022-09-16T18:13:59.496960","COUNTRY_CODE":"US","MEAN_MOTION_DOT":"-0.00000546","APOAPSIS":"548.169","TLE_LINE2":"2 46066  53.0547  37.5701 0001344  78.8796 281.2344 15.06391969117897","OBJECT_NAME":"STARLINK-1525","SITE":"AFETR","CENTER_NAME":"EARTH","CLASSIFICATION_TYPE":"U","ELEMENT_SET_NO":"999","RCS_SIZE":"LARGE","NORAD_CAT_ID":"46066","PERIOD":"95.593","MEAN_ANOMALY":"281.2344","OBJECT_ID":"2020-055AR","REV_AT_EPOCH":"11789","MEAN_MOTION_DDOT":"0.0000000000000","TLE_LINE1":"1 46066U 20055AR  22259.75971640 -.00000546  00000-0 -17793-4 0  9991","TIME_SYSTEM":"UTC","RA_OF_ASC_NODE":"37.5701","PERIAPSIS":"546.307","ARG_OF_PERICENTER":"78.8796","ECCENTRICITY":"0.00013440","SEMIMAJOR_AXIS":"6925.373","DECAY_DATE":null,"OBJECT_TYPE":"PAYLOAD","MEAN_ELEMENT_THEORY":"SGP4"},{"PERIAPSIS":"546.297","TIME_SYSTEM":"UTC","RA_OF_ASC_NODE":"37.5362","TLE_LINE1":"1 46067U 20055AS  22259.76246102 -.00000365  00000-0 -56367-5 0  9991","MEAN_ELEMENT_THEORY":"SGP4","DECAY_DATE":null,"OBJECT_TYPE":"PAYLOAD","SEMIMAJOR_AXIS":"6925.371","ARG_OF_PERICENTER":"84.4225","ECCENTRICITY":"0.00013570","RCS_SIZE":"LARGE","ELEMENT_SET_NO":"999","REV_AT_EPOCH":"11790","MEAN_MOTION_DDOT":"0.0000000000000","OBJECT_ID":"2020-055AS","MEAN_ANOMALY":"275.6918","PERIOD":"95.593","NORAD_CAT_ID":"46067","APOAPSIS":"548.176","MEAN_MOTION_DOT":"-0.00000365","CLASSIFICATION_TYPE":"U","TLE_LINE2":"2 46067  53.0565  37.5362 0001357  84.4225 275.6918 15.06392548117905","SITE":"AFETR","OBJECT_NAME":"STARLINK-1529","CENTER_NAME":"EARTH","LAUNCH_DATE":"2020-08-07","REF_FRAME":"TEME","GP_ID":"212746659","INCLINATION":"53.0565","BSTAR":"-0.00000563670000","EPHEMERIS_TYPE":"0","COUNTRY_CODE":"US","EPOCH":"2022-09-16T18:17:56.632128","FILE":"3575787","MEAN_MOTION":"15.06392548"},{"MEAN_MOTION_DOT":"0.00000709","APOAPSIS":"548.663","TLE_LINE2":"2 46068  53.0572  38.9790 0002066  65.6091 294.5113 15.06393913117852","OBJECT_NAME":"STARLINK-1532","SITE":"AFETR","CENTER_NAME":"EARTH","CLASSIFICATION_TYPE":"U","INCLINATION":"53.0572","BSTAR":"0.00006653100000","EPHEMERIS_TYPE":"0","REF_FRAME":"TEME","LAUNCH_DATE":"2020-08-07","GP_ID":"212716101","EPOCH":"2022-09-16T10:36:09.659808","FILE":"3575604","MEAN_MOTION":"15.06393913","COUNTRY_CODE":"US","TLE_LINE1":"1 46068U 20055AT  22259.44177847  .00000709  00000-0  66531-4 0  9999","PERIAPSIS":"545.801","RA_OF_ASC_NODE":"38.9790","TIME_SYSTEM":"UTC","SEMIMAJOR_AXIS":"6925.367","DECAY_DATE":null,"OBJECT_TYPE":"PAYLOAD","ARG_OF_PERICENTER":"65.6091","ECCENTRICITY":"0.00020660","MEAN_ELEMENT_THEORY":"SGP4","RCS_SIZE":"LARGE","ELEMENT_SET_NO":"999","OBJECT_ID":"2020-055AT","PERIOD":"95.593","MEAN_ANOMALY":"294.5113","NORAD_CAT_ID":"46068","REV_AT_EPOCH":"11785","MEAN_MOTION_DDOT":"0.0000000000000"},{"OBJECT_ID":"2020-055AU","NORAD_CAT_ID":"46069","PERIOD":"95.592","MEAN_ANOMALY":"282.2178","MEAN_MOTION_DDOT":"0.0000000000000","REV_AT_EPOCH":"11791","RCS_SIZE":"LARGE","ELEMENT_SET_NO":"999","DECAY_DATE":null,"SEMIMAJOR_AXIS":"6925.355","OBJECT_TYPE":"PAYLOAD","ECCENTRICITY":"0.00013630","ARG_OF_PERICENTER":"77.8963","MEAN_ELEMENT_THEORY":"SGP4","TLE_LINE1":"1 46069U 20055AU  22259.78920228  .00001933  00000-0  14861-3 0  9994","PERIAPSIS":"546.276","RA_OF_ASC_NODE":"37.4336","TIME_SYSTEM":"UTC","EPOCH":"2022-09-16T18:56:27.076992","MEAN_MOTION":"15.06397996","FILE":"3575787","COUNTRY_CODE":"US","INCLINATION":"53.0567","EPHEMERIS_TYPE":"0","BSTAR":"0.00014861000000","REF_FRAME":"TEME","LAUNCH_DATE":"2020-08-07","GP_ID":"212745658","TLE_LINE2":"2 46069  53.0567  37.4336 0001363  77.8963 282.2178 15.06397996117916","SITE":"AFETR","OBJECT_NAME":"STARLINK-1533","CENTER_NAME":"EARTH","CLASSIFICATION_TYPE":"U","MEAN_MOTION_DOT":"0.00001933","APOAPSIS":"548.164"},{"SEMIMAJOR_AXIS":"6925.358","DECAY_DATE":null,"OBJECT_TYPE":"PAYLOAD","ARG_OF_PERICENTER":"99.2440","ECCENTRICITY":"0.00014600","MEAN_ELEMENT_THEORY":"SGP4","TLE_LINE1":"1 46070U 20055AV  22259.80394633 -.00001971  00000-0 -11347-3 0  9994","PERIAPSIS":"546.212","RA_OF_ASC_NODE":"37.3645","TIME_SYSTEM":"UTC","OBJECT_ID":"2020-055AV","NORAD_CAT_ID":"46070","MEAN_ANOMALY":"260.8714","PERIOD":"95.592","REV_AT_EPOCH":"11791","MEAN_MOTION_DDOT":"0.0000000000000","RCS_SIZE":"LARGE","ELEMENT_SET_NO":"999","OBJECT_NAME":"STARLINK-1536","TLE_LINE2":"2 46070  53.0561  37.3645 0001460  99.2440 260.8714 15.06396785117913","SITE":"AFETR","CENTER_NAME":"EARTH","CLASSIFICATION_TYPE":"U","MEAN_MOTION_DOT":"-0.00001971","APOAPSIS":"548.235","EPOCH":"2022-09-16T19:17:40.962912","MEAN_MOTION":"15.06396785","FILE":"3575787","COUNTRY_CODE":"US","INCLINATION":"53.0561","EPHEMERIS_TYPE":"0","BSTAR":"-0.00011347000000","REF_FRAME":"TEME","LAUNCH_DATE":"2020-08-07","GP_ID":"212745910"}];
